API VERSION: 1.2
API SOURCE: NASA/JPL Horizons API



*******************************************************************************
Ephemeris / API_USER Wed Apr 15 10:21:02 2026 Pasadena, USA      / Horizons
*******************************************************************************
Target body name: Neptune (899)                   {source: nep097_merged}
Center body name: Sun (10)                        {source: nep097_merged}
Center-site name: BODY CENTER
*******************************************************************************
Start time      : A.D. 2100-Jan-01 00:00:00.0000 TDB
Stop  time      : A.D. 2199-Dec-18 00:00:00.0000 TDB
Step-size       : 43200 minutes
*******************************************************************************
Center geodetic : 0.0, 0.0, 0.0                   {E-lon(deg),Lat(deg),Alt(km)}
Center cylindric: 0.0, 0.0, 0.0                   {E-lon(deg),Dxy(km),Dz(km)}
Center radii    : 695700.0, 695700.0, 695700.0 km {Equator_a, b, pole_c}
Output units    : AU-D
Calendar mode   : Mixed Julian/Gregorian
Output type     : GEOMETRIC cartesian states
Output format   : 3 (position, velocity, LT, range, range-rate)
Reference frame : Ecliptic of J2000.0
*******************************************************************************
            JDTDB,            Calendar Date (TDB),                      X,                      Y,                      Z,                     VX,                     VY,                     VZ,                     LT,                     RG,                     RR,
**************************************************************************************************************************************************************************************************************************************************************************
$$SOE
2517769.500000000, A.D. 2181-Apr-26 00:00:00.0000,  2.814836671849361E+01, -1.022598286298430E+01, -4.382561622592389E-01,  1.045318636529789E-03,  2.963743436885906E-03, -8.555133558817740E-05,  1.729855328167148E-01,  2.995151653750783E+01, -2.823509374195359E-05,
2517799.500000000, A.D. 2181-May-26 00:00:00.0000,  2.817957936401598E+01, -1.013702071746249E+01, -4.408102014523623E-01,  1.036137201604262E-03,  2.966592215626620E-03, -8.531968294129661E-05,  1.729806014262518E-01,  2.995066269371754E+01, -2.794216833818499E-05,
2517829.500000000, A.D. 2181-Jun-25 00:00:00.0000,  2.821052074964797E+01, -1.004796429126431E+01, -4.433599429194005E-01,  1.026856406395550E-03,  2.969605561752219E-03, -8.498025528629273E-05,  1.729757264661979E-01,  2.994981862054972E+01, -2.780183257574824E-05,
2517859.500000000, A.D. 2181-Jul-25 00:00:00.0000,  2.824119078429184E+01, -9.958813410510116E+00, -4.459053688247840E-01,  1.017571535617699E-03,  2.972845791009000E-03, -8.461502514761823E-05,  1.729709071051977E-01,  2.994898417405962E+01, -2.774232201030102E-05,
2517889.500000000, A.D. 2181-Aug-24 00:00:00.0000,  2.827158886166573E+01, -9.869567447562160E+00, -4.484464383433708E-01,  1.008342395955749E-03,  2.976282491393173E-03, -8.431362242839423E-05,  1.729661388947408E-01,  2.994815858401153E+01, -2.769348891842382E-05,
2517919.500000000, A.D. 2181-Sep-23 00:00:00.0000,  2.830171344450114E+01, -9.780226749796450E+00, -4.509831066681454E-01,  9.992212911299422E-04,  2.979751678304824E-03, -8.414473772122043E-05,  1.729614142198720E-01,  2.994734053191686E+01, -2.754917641508278E-05,
2517949.500000000, A.D. 2181-Oct-23 00:00:00.0000,  2.833156361405240E+01, -9.690793027604728E+00, -4.535154380321659E-01,  9.902436657081106E-04,  2.983087775827978E-03, -8.412122008824952E-05,  1.729567313899685E-01,  2.994652972505335E+01, -2.722133568774687E-05,
2517979.500000000, A.D. 2181-Nov-22 00:00:00.0000,  2.836113932141193E+01, -9.601267920848347E+00, -4.560434821817466E-01,  9.813424074238009E-04,  2.986188807592871E-03, -8.418818554315987E-05,  1.729520932497579E-01,  2.994572665597029E+01, -2.674226612992483E-05,
2518009.500000000, A.D. 2181-Dec-22 00:00:00.0000,  2.839044089339523E+01, -9.511653162297870E+00, -4.585672588988684E-01,  9.724415214889404E-04,  2.989018254569198E-03, -8.426018869856966E-05,  1.729475048035843E-01,  2.994493219114301E+01, -2.617546188967886E-05,
2518039.500000000, A.D. 2182-Jan-21 00:00:00.0000,  2.841946958316908E+01, -9.421950010509480E+00, -4.610868168918272E-01,  9.634775140043548E-04,  2.991675221132159E-03, -8.424675344407524E-05,  1.729429752106876E-01,  2.994414791644477E+01, -2.561600392284754E-05,
2518069.500000000, A.D. 2182-Feb-20 00:00:00.0000,  2.844822640320191E+01, -9.332158011915514E+00, -4.636020838736328E-01,  9.543604974928774E-04,  2.994318790225645E-03, -8.409073998452249E-05,  1.729385092066827E-01,  2.994337465182182E+01, -2.520116559896233E-05,
2518099.500000000, A.D. 2182-Mar-22 00:00:00.0000,  2.847671102681999E+01, -9.242276425225946E+00, -4.661129071350879E-01,  9.450782001070730E-04,  2.997078542807351E-03, -8.379468412058247E-05,  1.729341037530420E-01,  2.994261187116943E+01, -2.498284979090281E-05,
2518129.500000000, A.D. 2182-Apr-21 00:00:00.0000,  2.850492274010942E+01, -9.152304963600280E+00, -4.686191894104513E-01,  9.357149860691868E-04,  3.000048283865308E-03, -8.342147884905149E-05,  1.729297545803810E-01,  2.994185883526661E+01, -2.490762223887582E-05,
2518159.500000000, A.D. 2182-May-21 00:00:00.0000,  2.853286036365681E+01, -9.062243412623198E+00, -4.711208213384633E-01,  9.263520314845586E-04,  3.003219083349847E-03, -8.306508521555195E-05,  1.729254550341696E-01,  2.994111439191716E+01, -2.489204282398378E-05,
2518189.500000000, A.D. 2182-Jun-20 00:00:00.0000,  2.856052256494750E+01, -8.972092723832148E+00, -4.736177763441247E-01,  9.170891892086333E-04,  3.006471334693288E-03, -8.281294678651310E-05,  1.729211996785023E-01,  2.994037759992326E+01, -2.480167184803203E-05,
2518219.500000000, A.D. 2182-Jul-20 00:00:00.0000,  2.858790921223113E+01, -8.881854502131954E+00, -4.761101762666209E-01,  9.080025967818518E-04,  3.009693406152658E-03, -8.270698530155374E-05,  1.729169907856302E-01,  2.993964885271295E+01, -2.452886119227837E-05,
2518249.500000000, A.D. 2182-Aug-19 00:00:00.0000,  2.861502064504649E+01, -8.791529578173744E+00, -4.785981190823131E-01,  8.990486159196977E-04,  3.012765589050233E-03, -8.272928984197711E-05,  1.729128318483745E-01,  2.993892875504950E+01, -2.407998650130623E-05,
2518279.500000000, A.D. 2182-Sep-18 00:00:00.0000,  2.864185698613373E+01, -8.701118656271154E+00, -4.810816702291481E-01,  8.901332058728509E-04,  3.015604020915823E-03, -8.280772603374421E-05,  1.729087249445160E-01,  2.993821766668948E+01, -2.352254746057930E-05,
2518309.500000000, A.D. 2182-Oct-18 00:00:00.0000,  2.866841847588994E+01, -8.610622130974805E+00, -4.835608678636134E-01,  8.811461269552227E-04,  3.018245493996203E-03, -8.284465275189993E-05,  1.729046722872558E-01,  2.993751597083682E+01, -2.297602479257807E-05,
2518339.500000000, A.D. 2182-Nov-17 00:00:00.0000,  2.869470441067177E+01, -8.520039833679434E+00, -4.860355725483979E-01,  8.719717596952545E-04,  3.020772929432301E-03, -8.275821464094447E-05,  1.729006699469934E-01,  2.993682298710223E+01, -2.257789186281320E-05,
2518369.500000000, A.D. 2182-Dec-17 00:00:00.0000,  2.872071345708197E+01, -8.429372516607170E+00, -4.885056048433619E-01,  8.626017667674289E-04,  3.023280846622870E-03, -8.252296971093165E-05,  1.728967120433517E-01,  2.993613769733005E+01, -2.236458761463102E-05,
2518399.500000000, A.D. 2183-Jan-16 00:00:00.0000,  2.874644511494006E+01, -8.338621497872024E+00, -4.909708620104531E-01,  8.531206704025456E-04,  3.025906985314780E-03, -8.217321062429786E-05,  1.728927982028783E-01,  2.993546003685893E+01, -2.229335568196454E-05,
2518429.500000000, A.D. 2183-Feb-15 00:00:00.0000,  2.877189920883002E+01, -8.247787736749219E+00, -4.934312444771762E-01,  8.436249810558275E-04,  3.028710412207214E-03, -8.178778931340819E-05,  1.728889292303002E-01,  2.993479014502307E+01, -2.228547509710505E-05,
2518459.500000000, A.D. 2183-Mar-17 00:00:00.0000,  2.879707603934736E+01, -8.156872331691755E+00, -4.958867646128292E-01,  8.342488949270019E-04,  3.031668525361808E-03, -8.146550074483438E-05,  1.728851087826133E-01,  2.993412865501166E+01, -2.220230274606335E-05,
2518489.500000000, A.D. 2183-Apr-16 00:00:00.0000,  2.882197679929971E+01, -8.065875619049690E+00, -4.983375609817968E-01,  8.250648019216956E-04,  3.034727111800762E-03, -8.127559483519186E-05,  1.728813442820638E-01,  2.993347685194682E+01, -2.195635890177832E-05,
2518519.500000000, A.D. 2183-May-16 00:00:00.0000,  2.884660181899773E+01, -7.974796779185506E+00, -5.007836964083050E-01,  8.160227729484420E-04,  3.037751237706723E-03, -8.122974774586116E-05,  1.728776366124824E-01,  2.993283488885908E+01, -2.155780596838636E-05,
2518549.500000000, A.D. 2183-Jun-15 00:00:00.0000,  2.887095031212080E+01, -7.883635381427109E+00, -5.032252044814227E-01,  8.070322707165531E-04,  3.040603951454799E-03, -8.128027535452764E-05,  1.728739811380480E-01,  2.993220196308088E+01, -2.105832447784395E-05,
2518579.500000000, A.D. 2183-Jul-15 00:00:00.0000,  2.889502121880777E+01, -7.792391427408956E+00, -5.056620817137476E-01,  7.979820693111088E-04,  3.043243644215453E-03, -8.133942966009135E-05,  1.728703724074819E-01,  2.993157713075259E+01, -2.055710568519130E-05,
2518609.500000000, A.D. 2183-Aug-14 00:00:00.0000,  2.891881269123716E+01, -7.701065464177541E+00, -5.080941939851573E-01,  7.887566969351100E-04,  3.045670603861304E-03, -8.131557734568130E-05,  1.728668013983385E-01,  2.993095882968618E+01, -2.016926874066706E-05,
2518639.500000000, A.D. 2183-Sep-13 00:00:00.0000,  2.894232316456668E+01, -7.609659346321486E+00, -5.105214235449573E-01,  7.793403408705543E-04,  3.047969793496112E-03, -8.115259929053085E-05,  1.728632625655865E-01,  2.993034609978924E+01, -1.993500787530656E-05,
